NORAD_CAT_ID,OBJECT_NAME,OBJECT_TYPE,EPOCH,MEAN_MOTION,ECCENTRICITY,INCLINATION,RA_OF_ASC_NODE,ARG_OF_PERICENTER,MEAN_ANOMALY,BSTAR,MEAN_MOTION_DOT,MEAN_MOTION_DDOT,TLE_LINE0,TLE_LINE1,TLE_LINE2,SEMIMAJOR_AXIS,PERIOD,APOGEE,PERIGEE,DECAYED
56814.0,STARLINK-6059,PAYLOAD,2024-01-13 14:13:49,14.98333378,0.0002699,70.0002,166.3587,270.9361,89.1489,-0.00017823,-2.219e-05,0.0,0 STARLINK-6059,1 56814U 23078AZ  24013.59293263 -.00002219  00000-0 -17823-3 0  9993,2 56814  70.0002 166.3587 0002699 270.9361  89.1489 14.98333378 34932,6950.182,96.107,573.923,570.172,0.0
56814.0,STARLINK-6059,PAYLOAD,2024-01-14 11:03:33,14.9832948,0.0002884,70.0001,164.1706,271.3592,88.7237,0.00013156,1.477e-05,0.0,0 STARLINK-6059,1 56814U 23078AZ  24014.46080914  .00001477  00000-0  13156-3 0  9995,2 56814  70.0001 164.1706 0002884 271.3592  88.7237 14.98329480 35326,6950.194,96.107,574.064,570.055,0.0
56814.0,STARLINK-6059,PAYLOAD,2024-01-14 14:15:50,14.98321666,0.0002868,70.0003,163.834,277.2941,82.7892,4.5727e-05,4.53e-06,0.0,0 STARLINK-6059,1 56814U 23078AZ  24014.59433630  .00000453  00000-0  45727-4 0  9999,2 56814  70.0003 163.8340 0002868 277.2941  82.7892 14.98321666 35085,6950.219,96.108,574.077,570.09,0.0
56814.0,STARLINK-6059,PAYLOAD,2024-01-14 19:04:14,14.98331247,0.000261,70.0018,163.3305,267.831,92.255,0.00017749,2.025e-05,0.0,0 STARLINK-6059,1 56814U 23078AZ  24014.79460683  .00002025  00000-0  17749-3 0  9998,2 56814  70.0018 163.3305 0002610 267.8310  92.2550 14.98331247 35114,6950.189,96.107,573.868,570.24,0.0
56814.0,STARLINK-6059,PAYLOAD,2024-01-15 12:41:43,14.98328712,0.0003058,70.0002,161.4774,269.7528,90.3281,2.7087e-05,2.3e-06,0.0,0 STARLINK-6059,1 56814U 23078AZ  24015.52897154  .00000230  00000-0  27087-4 0  9990,2 56814  70.0002 161.4774 0003058 269.7528  90.3281 14.98328712 35488,6950.197,96.107,574.187,569.937,0.0
56814.0,STARLINK-6059,PAYLOAD,2024-01-15 14:17:51,14.98325424,0.0002927,70.0003,161.3093,268.4693,91.613,-1.1953e-05,-2.36e-06,0.0,0 STARLINK-6059,1 56814U 23078AZ  24015.59573458 -.00000236  00000-0 -11953-4 0  9998,2 56814  70.0003 161.3093 0002927 268.4693  91.6130 14.98325424 35232,6950.207,96.107,574.106,570.038,0.0
56814.0,STARLINK-6059,PAYLOAD,2024-01-15 19:06:15,14.98330804,0.0002919,70.0008,160.8054,262.9747,97.108,5.7003e-05,5.87e-06,0.0,0 STARLINK-6059,1 56814U 23078AZ  24015.79600920  .00000587  00000-0  57003-4 0  9998,2 56814  70.0008 160.8054 0002919 262.9747  97.1080 14.98330804 35264,6950.19,96.107,574.084,570.027,0.0
56814.0,STARLINK-6059,PAYLOAD,2024-01-16 12:43:44,14.98329159,0.0002808,70.0019,158.9557,257.9374,102.147,-7.2635e-05,-9.59e-06,0.0,0 STARLINK-6059,1 56814U 23078AZ  24016.53037331 -.00000959  00000-0 -72635-4 0  9994,2 56814  70.0019 158.9557 0002808 257.9374 102.1470 14.98329159 35631,6950.195,96.107,574.012,570.109,0.0
56814.0,STARLINK-6059,PAYLOAD,2024-01-16 14:19:52,14.98334449,0.0002696,70.0006,158.7852,258.5781,101.5076,-0.00012969,-1.64e-05,0.0,0 STARLINK-6059,1 56814U 23078AZ  24016.59713158 -.00001640  00000-0 -12969-3 0  9999,2 56814  70.0006 158.7852 0002696 258.5781 101.5076 14.98334449 35382,6950.179,96.107,573.918,570.17,0.0
56814.0,STARLINK-6059,PAYLOAD,2024-01-16 19:08:16,14.98333658,0.0003189,69.9997,158.2789,271.6225,88.4568,-3.7009e-05,-5.35e-06,0.0,0 STARLINK-6059,1 56814U 23078AZ  24016.79740948 -.00000535  00000-0 -37009-4 0  9993,2 56814  69.9997 158.2789 0003189 271.6225  88.4568 14.98333658 35413,6950.182,96.107,574.263,569.83,0.0
56814.0,STARLINK-6059,PAYLOAD,2024-01-17 14:21:53,14.98327146,0.00032,70.0002,156.2592,274.7785,85.3009,-1.0547e-05,-2.19e-06,0.0,0 STARLINK-6059,1 56814U 23078AZ  24017.59853358 -.00000219  00000-0 -10547-4 0  9999,2 56814  70.0002 156.2592 0003200 274.7785  85.3009 14.98327146 35536,6950.202,96.107,574.291,569.843,0.0
56814.0,STARLINK-6059,PAYLOAD,2024-01-17 19:10:17,14.98331165,0.0003139,70.0004,155.7543,276.9144,83.1658,4.2051e-05,4.09e-06,0.0,0 STARLINK-6059,1 56814U 23078AZ  24017.79881002  .00000409  00000-0  42051-4 0  9992,2 56814  70.0004 155.7543 0003139 276.9144  83.1658 14.98331165 35826,6950.189,96.107,574.236,569.873,0.0
56814.0,STARLINK-6059,PAYLOAD,2024-01-18 12:47:46,14.98325998,0.0003017,70.0008,153.9041,271.5766,88.5047,3.6791e-05,3.46e-06,0.0,0 STARLINK-6059,1 56814U 23078AZ  24018.53317395  .00000346  00000-0  36791-4 0  9998,2 56814  70.0008 153.9041 0003017 271.5766  88.5047 14.98325998 35670,6950.205,96.107,574.167,569.973,0.0
56814.0,STARLINK-6059,PAYLOAD,2024-01-18 19:12:18,14.9833169,0.000314,70.001,153.231,273.7574,86.3226,6.3328e-05,6.63e-06,0.0,0 STARLINK-6059,1 56814U 23078AZ  24018.80020968  .00000663  00000-0  63328-4 0  9993,2 56814  70.0010 153.2310 0003140 273.7574  86.3226 14.98331690 35977,6950.188,96.107,574.235,569.87,0.0
56814.0,STARLINK-6059,PAYLOAD,2024-01-19 14:25:54,14.98332776,0.0002791,70.0012,151.2114,266.0321,94.0519,4.8967e-05,4.91e-06,0.0,0 STARLINK-6059,1 56814U 23078AZ  24019.60132782  .00000491  00000-0  48967-4 0  9991,2 56814  70.0012 151.2114 0002791 266.0321  94.0519 14.98332776 35837,6950.184,96.107,573.989,570.11,0.0
56814.0,STARLINK-6059,PAYLOAD,2024-01-19 17:38:10,14.98335016,0.0002747,70.0013,150.8747,265.6256,94.4589,7.4346e-05,7.94e-06,0.0,0 STARLINK-6059,1 56814U 23078AZ  24019.73484529  .00000794  00000-0  74346-4 0  9990,2 56814  70.0013 150.8747 0002747 265.6256  94.4589 14.98335016 35851,6950.177,96.107,573.952,570.133,0.0
56814.0,STARLINK-6059,PAYLOAD,2024-01-20 11:15:39,14.9832834,0.0002648,70.0014,149.0233,262.8101,97.2757,-8.2559e-06,-1.91e-06,0.0,0 STARLINK-6059,1 56814U 23078AZ  24020.46921061 -.00000191  00000-0 -82559-5 0  9998,2 56814  70.0014 149.0233 0002648 262.8101  97.2757 14.98328340 36222,6950.198,96.107,573.903,570.223,0.0
56814.0,STARLINK-6059,PAYLOAD,2024-01-20 12:51:47,14.98328007,0.0002661,70.0014,148.855,262.2233,97.8624,-1.3163e-05,-2.5e-06,0.0,0 STARLINK-6059,1 56814U 23078AZ  24020.53597093 -.00000250  00000-0 -13163-4 0  9990,2 56814  70.0014 148.8550 0002661 262.2233  97.8624 14.98328007 35976,6950.199,96.107,573.914,570.215,0.0
56814.0,STARLINK-6059,PAYLOAD,2024-01-20 17:40:12,14.98325861,0.0002714,70.0014,148.3501,263.8158,96.2692,-3.9268e-05,-5.61e-06,0.0,0 STARLINK-6059,1 56814U 23078AZ  24020.73625337 -.00000561  00000-0 -39268-4 0  9994,2 56814  70.0014 148.3501 0002714 263.8158  96.2692 14.98325861 36007,6950.206,96.107,573.957,570.184,0.0
56814.0,STARLINK-6059,PAYLOAD,2024-01-21 11:17:40,14.98333554,0.0002819,70.0011,146.4985,262.4772,97.6067,-2.31e-05,-3.69e-06,0.0,0 STARLINK-6059,1 56814U 23078AZ  24021.47060713 -.00000369  00000-0 -23100-4 0  9991,2 56814  70.0011 146.4985 0002819 262.4772  97.6067 14.98333554 36371,6950.182,96.107,574.006,570.088,0.0
56814.0,STARLINK-6059,PAYLOAD,2024-01-21 17:42:12,14.98336251,0.000287,70.001,145.825,267.5181,92.565,3.1191e-06,-5.6e-07,0.0,0 STARLINK-6059,1 56814U 23078AZ  24021.73764420 -.00000056  00000-0  31191-5 0  9998,2 56814  70.0010 145.8250 0002870 267.5181  92.5650 14.98336251 36150,6950.174,96.107,574.033,570.044,0.0
56814.0,STARLINK-6059,PAYLOAD,2024-01-22 11:19:41,14.98324482,0.0002859,70.0012,143.974,264.2507,95.8326,1.2116e-05,5.2e-07,0.0,0 STARLINK-6059,1 56814U 23078AZ  24022.47201102  .00000052  00000-0  12116-4 0  9993,2 56814  70.0012 143.9740 0002859 264.2507  95.8326 14.98324482 36528,6950.21,96.107,574.062,570.088,0.0
56814.0,STARLINK-6059,PAYLOAD,2024-01-22 17:44:13,14.98327367,0.0002794,70.0014,143.3017,258.6911,101.3934,4.3178e-05,4.22e-06,0.0,0 STARLINK-6059,1 56814U 23078AZ  24022.73904862  .00000422  00000-0  43178-4 0  9998,2 56814  70.0014 143.3017 0002794 258.6911 101.3934 14.98327367 36304,6950.201,96.107,574.008,570.124,0.0
56814.0,STARLINK-6059,PAYLOAD,2024-01-23 11:21:42,14.98335171,0.0002855,70.0011,141.4497,264.4868,95.5965,1.4239e-05,7.7e-07,0.0,0 STARLINK-6059,1 56814U 23078AZ  24023.47340367  .00000077  00000-0  14239-4 0  9996,2 56814  70.0011 141.4497 0002855 264.4868  95.5965 14.98335171 36676,6950.177,96.107,574.026,570.058,0.0
56814.0,STARLINK-6059,PAYLOAD,2024-01-23 17:46:13,14.98339504,0.000294,70.0009,140.7768,264.7494,95.333,5.4327e-05,5.55e-06,0.0,0 STARLINK-6059,1 56814U 23078AZ  24023.74043856  .00000555  00000-0  54327-4 0  9992,2 56814  70.0009 140.7768 0002940 264.7494  95.3330 14.98339504 36453,6950.164,96.106,574.072,569.985,0.0
56814.0,STARLINK-6059,PAYLOAD,2024-01-24 11:23:43,14.9832489,0.0002373,70.0027,138.9279,241.5848,118.5072,-2.9632e-06,-1.28e-06,0.0,0 STARLINK-6059,1 56814U 23078AZ  24024.47480952 -.00000128  00000-0 -29632-5 0  9995,2 56814  70.0027 138.9279 0002373 241.5848 118.5072 14.98324890 36829,6950.209,96.107,573.723,570.424,0.0
56814.0,STARLINK-6059,PAYLOAD,2024-01-24 14:35:59,14.98323337,0.0002447,70.0023,138.591,248.5413,111.5485,-2.2458e-05,-3.61e-06,0.0,0 STARLINK-6059,1 56814U 23078AZ  24024.60833183 -.00000361  00000-0 -22458-4 0  9995,2 56814  70.0023 138.5910 0002447 248.5413 111.5485 14.98323337 36589,6950.213,96.107,573.779,570.378,0.0
56814.0,STARLINK-6059,PAYLOAD,2024-01-24 17:48:16,14.98321317,0.0002421,70.0021,138.2533,254.0765,106.0128,-3.9514e-05,-5.64e-06,0.0,0 STARLINK-6059,1 56814U 23078AZ  24024.74185450 -.00000564  00000-0 -39514-4 0  9993,2 56814  70.0021 138.2533 0002421 254.0765 106.0128 14.98321317 36601,6950.22,96.108,573.767,570.402,0.0
56814.0,STARLINK-6059,PAYLOAD,2024-01-25 11:25:44,14.98329961,0.000283,70.001,136.4017,262.2178,97.8659,-6.0559e-05,-8.15e-06,0.0,0 STARLINK-6059,1 56814U 23078AZ  24025.47620992 -.00000815  00000-0 -60559-4 0  9991,2 56814  70.0010 136.4017 0002830 262.2178  97.8659 14.98329961 36978,6950.193,96.107,574.025,570.091,0.0
56814.0,STARLINK-6059,PAYLOAD,2024-01-25 17:50:16,14.98332036,0.0002792,70.0009,135.7283,263.7882,96.2959,-3.0339e-05,-4.55e-06,0.0,0 STARLINK-6059,1 56814U 23078AZ  24025.74324777 -.00000455  00000-0 -30339-4 0  9996,2 56814  70.0009 135.7283 0002792 263.7882  96.2959 14.98332036 36757,6950.187,96.107,573.992,570.111,0.0
